ONEWEB-0042             
1 45441U 20020T   22129.02709843 -.00000265  00000+0 -78490-3 0  9996
2 45441  87.8829 319.3337 0002013  87.5952 272.5406 13.11418448106056
ONEWEB-0098             
1 45442U 20020U   22128.89471103  .00000547  00000+0  15064-2 0  9994
2 45442  87.8826 319.3562 0001642  76.0141 284.1169 13.11419143106007
ONEWEB-0055             
1 45443U 20020V   22128.80270092 -.00000065  00000+0 -21886-3 0  9997
2 45443  87.8839 319.3552 0001621  80.1753 279.9558 13.11418444105964
ONEWEB-0093             
1 45444U 20020W   22128.77801247 -.00000397  00000+0 -11548-2 0  9997
2 45444  87.8825 319.3869 0001636  78.7221 281.4090 13.11417494106021
ONEWEB-0029             
1 45445U 20020X   22129.02933444 -.00000350  00000+0 -10238-2 0  9996
2 45445  87.8831 319.3219 0002009  80.1462 279.9892 13.11418575106042
ONEWEB-0068             
1 45446U 20020Y   22128.77016647 -.00000171  00000+0 -51839-3 0  9999
2 45446  87.8825 319.3857 0001634  73.3353 286.7954 13.11415499105945
ONEWEB-0046             
1 45447U 20020Z   22128.53790581  .00000009  00000+0 -99292-5 0  9996
2 45447  87.8827 319.4408 0001862  89.7443 270.3898 13.11414367105933
ONEWEB-0063             
1 45448U 20020AA  22129.02485172 -.00000402  00000+0 -11704-2 0  9996
2 45448  87.8824 319.3326 0001956  95.0135 265.1216 13.11417568106079
ONEWEB-0019             
1 45449U 20020AB  22129.07649523  .00000524  00000+0  14416-2 0  9990
2 45449  87.8829 319.3157 0001624  92.4683 267.6631 13.11413745105933
ONEWEB-0094             
1 45450U 20020AC  22128.89542743  .00000010  00000+0 -65213-5 0  9992
2 45450  87.9016 304.0420 0001632  92.8449 267.2870 13.17650368108733
ONEWEB-0087             
1 45451U 20020AD  22128.57605586  .00000038  00000+0  72475-4 0  9999
2 45451  87.8837 319.4522 0002011  77.3601 282.7752 13.11419044105902
ONEWEB-0082             
1 45452U 20020AE  22128.88349394  .00000132  00000+0  33649-3 0  9990
2 45452  87.8829 319.3278 0001762  69.0947 291.0369 13.11417718106032
ONEWEB-0050             
1 45453U 20020AF  22128.91401919  .00002126  00000+0  18989-3 0  9992
2 45453  87.5406 253.3106 0025656   1.2164 358.9124 14.95194022116367
ONEWEB-0034             
1 45454U 20020AG  22128.90144551  .00000500  00000+0  13736-2 0  9996
2 45454  87.8825 319.3459 0001857  82.1075 278.0264 13.11417174105959
ONEWEB-0060             
1 45455U 20020AH  22129.06301407  .00000448  00000+0  12275-2 0  9998
2 45455  87.8829 319.3214 0001828  87.9381 272.1956 13.11415255105944
ONEWEB-0086             
1 45456U 20020AJ  22128.77576644 -.00000349  00000+0 -10209-2 0  9990
2 45456  87.8825 319.3712 0001765  79.6233 280.5093 13.11414902105952
ONEWEB-0088             
1 45457U 20020AK  22128.90370982  .00000534  00000+0  14715-2 0  9993
2 45457  87.8822 319.3610 0001945  85.2532 274.8818 13.11416313105906
YAOGAN-30 R             
1 45460U 20021A   22129.07490544  .00001574  00000+0  16128-3 0  9990
2 45460  34.9985 257.9409 0005758 308.7865  51.2325 14.90411538115794
YAOGAN-30 S             
1 45461U 20021B   22129.05216975  .00001619  00000+0  16582-3 0  9997
2 45461  34.9975 257.7296 0002641 220.1564 139.8933 14.90415633115762
YAOGAN-30 T             
1 45462U 20021C   22129.02971646 -.00001277  00000+0 -12615-3 0  9993
2 45462  34.9984 255.7561 0002424   8.3702 351.7127 14.90360853115780
AEHF-6 (USA 298)        
1 45465U 20022B   22128.92413736 -.00000301  00000+0  00000+0 0  9993
2 45465   6.0400 303.2080 0047598   3.5379  30.3582  1.00268044  7948
STARLINK-1329           
1 45531U 20025A   22128.84160866  .00000439  00000+0  48363-4 0  9994
2 45531  53.0562 275.2773 0001499  79.0736 281.0422 15.06395694113955
STARLINK-1338           
1 45532U 20025B   22128.78630984  .00001444  00000+0  11581-3 0  9999
2 45532  53.0562 275.5204 0001384  81.6934 278.4212 15.06400270113943
STARLINK-1339           
1 45533U 20025C   22128.67056690  .00191733  00000+0  35512-2 0  9994
2 45533  53.0424 242.2159 0008048 323.7735  36.2725 15.47793909114404
STARLINK-1341           
1 45534U 20025D   22128.79737663  .00001132  00000+0  94894-4 0  9997
2 45534  53.0553 275.4643 0001394  79.2948 280.8198 15.06395405113943
STARLINK-1350           
1 45535U 20025E   22128.81580371  .00001822  00000+0  14120-3 0  9992
2 45535  53.0533 275.3796 0001443  68.2884 291.8259 15.06396640113955
STARLINK-1352           
1 45536U 20025F   22128.81948147  .00000514  00000+0  53428-4 0  9994
2 45536  53.0526 275.3655 0001580  82.0732 278.0437 15.06399492113942
STARLINK-1353           
1 45537U 20025G   22128.93945915  .00035144  00000+0  15130-2 0  9991
2 45537  52.9888 233.9098 0003179 305.2227  54.8471 15.22301556114512
STARLINK-1362           
1 45538U 20025H   22128.84529101  .00000688  00000+0  65067-4 0  9998
2 45538  53.0558 275.2551 0001390  76.0291 284.0852 15.06392458113959
STARLINK-1367           
1 45539U 20025J   22128.87309498  .00006682  00000+0  44759-4 0  9992
2 45539  53.0440  93.0079 0008344 280.2236  79.7842 15.76733721116483
STARLINK-1368           
1 45540U 20025K   22128.82316917  .00003155  00000+0  23060-3 0  9996
2 45540  53.0554 275.3504 0001534  65.2281 294.8868 15.06405298113948
STARLINK-1369           
1 45541U 20025L   22128.82685441  .00000438  00000+0  48286-4 0  9997
2 45541  53.0542 275.3239 0001746  52.2505 307.8642 15.06402605113945
STARLINK-1371           
1 45542U 20025M   22128.72734363  .00001020  00000+0  87373-4 0  9993
2 45542  53.0559 275.7894 0001495  69.7070 290.4079 15.06398061113936
STARLINK-1372           
1 45543U 20025N   22128.69785585  .00001096  00000+0  92477-4 0  9996
2 45543  53.0559 275.9192 0001659  63.0032 297.1126 15.06397819113024
STARLINK-1373           
1 45544U 20025P   22128.78262899  .00001059  00000+0  90001-4 0  9995
2 45544  53.0557 275.5411 0001374  93.4076 266.7070 15.06397744113940
STARLINK-1374           
1 45545U 20025Q   22128.80105832  .00001426  00000+0  11460-3 0  9991
2 45545  53.0545 275.4423 0001279  84.4041 275.7094 15.06400942113925
STARLINK-1375           
1 45546U 20025R   22128.81211915  .00000327  00000+0  40861-4 0  9990
2 45546  53.0575 275.3975 0001392  83.6483 276.4664 15.06397368113947
STARLINK-1377           
1 45547U 20025S   22128.80843047  .00000635  00000+0  61543-4 0  9999
2 45547  53.0572 275.4161 0001529  76.3143 283.8016 15.06397275113958
STARLINK-1378           
1 45548U 20025T   22128.83423438 -.00000746  00000+0 -31181-4 0  9991
2 45548  53.0552 275.3127 0001582  66.2951 293.8204 15.06400293113946
STARLINK-1390           
1 45550U 20025V   22128.78537324  .00000478  00000+0  50974-4 0  9999
2 45550  53.0537 275.5301 0001434  78.5121 281.6029 15.06394471113938
STARLINK-1294           
1 45551U 20025W   22128.85450929  .00001096  00000+0  92493-4 0  9992
2 45551  53.0543 255.2038 0001395  60.8805 299.2324 15.06395406114233
STARLINK-1322           
1 45552U 20025X   22128.89178940  .00248046  00000+0  37241-2 0  9993
2 45552  53.0469 200.5252 0012150   6.7931 353.3241 15.53454439115002
STARLINK-1323           
1 45553U 20025Y   22129.06460188  .00001282  00000+0  10493-3 0  9992
2 45553  53.0541 254.2649 0001575  61.1246 298.9901 15.06397847113667
STARLINK-1325           
1 45554U 20025Z   22128.79184565 -.00000614  00000+0 -22359-4 0  9999
2 45554  53.0529 255.4785 0001251  52.6071 307.5032 15.06393093114224
STARLINK-1327           
1 45555U 20025AA  22129.08673021  .00001632  00000+0  12847-3 0  9992
2 45555  53.0530 254.1582 0001606  69.1948 290.9213 15.06396582113667
STARLINK-1334           
1 45556U 20025AB  22129.06090926  .00001134  00000+0  94982-4 0  9996
2 45556  53.0557 254.2983 0001457  62.1001 298.0135 15.06404369113665
STARLINK-1336           
1 45557U 20025AC  22129.06828349  .00002727  00000+0  20189-3 0  9991
2 45557  53.0542 254.2515 0001297  74.1648 285.9484 15.06399612113669
STARLINK-1342           
1 45558U 20025AD  22128.63703228  .00000351  00000+0  42465-4 0  9995
2 45558  53.0557 256.1970 0001273  80.0141 280.0992 15.06399308114191
STARLINK-1344           
1 45559U 20025AE  22128.74023686  .00003022  00000+0  22170-3 0  9999
2 45559  53.0547 255.7139 0001605  67.3697 292.7462 15.06400578114213
STARLINK-1346           
1 45560U 20025AF  22128.72641710  .00001451  00000+0  11628-3 0  9993
2 45560  53.0562 245.7968 0001488  66.8418 293.2727 15.06398607114359
STARLINK-1348           
1 45561U 20025AG  22128.79905701  .00015815  00000+0  92057-3 0  9998
2 45561  53.0564 166.5188 0002206  37.3216 322.7929 15.12200314115474
STARLINK-1354           
1 45562U 20025AH  22129.07934810  .00002169  00000+0  16449-3 0  9993
2 45562  53.0544 254.1927 0001458  76.1705 283.9447 15.06398080113663
STARLINK-1355           
1 45563U 20025AJ  22128.76235737 -.00000756  00000+0 -31839-4 0  9994
2 45563  53.0534 255.6354 0001447  75.3834 284.7315 15.06395020114211
STARLINK-1356           
1 45564U 20025AK  22128.82502157 -.00000503  00000+0 -14851-4 0  9990
2 45564  53.0556 255.3403 0001725  57.3517 302.7638 15.06393495114229
STARLINK-1357           
1 45565U 20025AL  22128.61861042  .00001487  00000+0  11870-3 0  9996
2 45565  53.0544 256.2689 0001469  75.4541 284.6611 15.06399539114196
STARLINK-1358           
1 45566U 20025AM  22128.83238650  .00001692  00000+0  13248-3 0  9993
2 45566  53.0554 255.3193 0001767  60.4033 299.7132 15.06398761114224
STARLINK-1361           
1 45567U 20025AN  22129.04248874  .00000541  00000+0  55231-4 0  9998
2 45567  53.0546 254.3581 0001362  70.4560 289.6576 15.06397289113653
STARLINK-1363           
1 45568U 20025AP  22128.76877965  .00000595  00000+0  58809-4 0  9999
2 45568  53.0554 255.5996 0001522  75.4679 284.6478 15.06398150114217
STARLINK-1366           
1 45569U 20025AQ  22129.04617207  .00000885  00000+0  78320-4 0  9995
2 45569  53.0539 254.3518 0001685  56.8887 303.2263 15.06399462113656
